[{"OBJECT_NAME":"ONEWEB-0527","OBJECT_ID":"2022-166A","EPOCH":"2025-08-15T12:13:22.973088","MEAN_MOTION":13.21827909,"ECCENTRICITY":0.0001917,"INCLINATION":87.9259,"RA_OF_ASC_NODE":304.9943,"ARG_OF_PERICENTER":97.635,"MEAN_ANOMALY":262.5002,"EPHEMERIS_TYPE":0,"CLASSIFICATION_TYPE":"U","NORAD_CAT_ID":54642,"ELEMENT_SET_NO":999,"REV_AT_EPOCH":13160,"BSTAR":-8.2353e-5,"MEAN_MOTION_DOT":-2.1e-7,"MEAN_MOTION_DDOT":0},{"OBJECT_NAME":"ONEWEB-0528","OBJECT_ID":"2022-166B","EPOCH":"2025-08-16T06:32:30.246720","MEAN_MOTION":13.21828023,"ECCENTRICITY":0.0001941,"INCLINATION":87.9262,"RA_OF_ASC_NODE":304.844,"ARG_OF_PERICENTER":95.0514,"MEAN_ANOMALY":265.0841,"EPHEMERIS_TYPE":0,"CLASSIFICATION_TYPE":"U","NORAD_CAT_ID":54643,"ELEMENT_SET_NO":999,"REV_AT_EPOCH":13171,"BSTAR":-0.0002148,"MEAN_MOTION_DOT":-7.6e-7,"MEAN_MOTION_DDOT":0},{"OBJECT_NAME":"ONEWEB-0539","OBJECT_ID":"2022-166C","EPOCH":"2025-08-15T22:19:43.552416","MEAN_MOTION":13.21824569,"ECCENTRICITY":0.0002229,"INCLINATION":87.9251,"RA_OF_ASC_NODE":304.883,"ARG_OF_PERICENTER":97.8105,"MEAN_ANOMALY":262.3282,"EPHEMERIS_TYPE":0,"CLASSIFICATION_TYPE":"U","NORAD_CAT_ID":54644,"ELEMENT_SET_NO":999,"REV_AT_EPOCH":13121,"BSTAR":0.00011755,"MEAN_MOTION_DOT":6.2e-7,"MEAN_MOTION_DDOT":0},{"OBJECT_NAME":"ONEWEB-0540","OBJECT_ID":"2022-166D","EPOCH":"2025-08-15T11:35:00.042432","MEAN_MOTION":13.21826798,"ECCENTRICITY":0.0002208,"INCLINATION":87.9258,"RA_OF_ASC_NODE":305.0069,"ARG_OF_PERICENTER":97.6342,"MEAN_ANOMALY":262.5043,"EPHEMERIS_TYPE":0,"CLASSIFICATION_TYPE":"U","NORAD_CAT_ID":54645,"ELEMENT_SET_NO":999,"REV_AT_EPOCH":13161,"BSTAR":2.2911e-5,"MEAN_MOTION_DOT":2.2e-7,"MEAN_MOTION_DDOT":0},{"OBJECT_NAME":"ONEWEB-0542","OBJECT_ID":"2022-166E","EPOCH":"2025-08-16T05:49:22.373184","MEAN_MOTION":13.21827405,"ECCENTRICITY":0.0002381,"INCLINATION":87.9249,"RA_OF_ASC_NODE":304.8184,"ARG_OF_PERICENTER":101.7001,"MEAN_ANOMALY":258.44,"EPHEMERIS_TYPE":0,"CLASSIFICATION_TYPE":"U","NORAD_CAT_ID":54646,"ELEMENT_SET_NO":999,"REV_AT_EPOCH":13171,"BSTAR":0.00019165,"MEAN_MOTION_DOT":9.2e-7,"MEAN_MOTION_DDOT":0},{"OBJECT_NAME":"ONEWEB-0545","OBJECT_ID":"2022-166F","EPOCH":"2025-08-16T06:50:40.516224","MEAN_MOTION":13.21827354,"ECCENTRICITY":0.0002575,"INCLINATION":87.9259,"RA_OF_ASC_NODE":304.827,"ARG_OF_PERICENTER":96.5085,"MEAN_ANOMALY":263.6342,"EPHEMERIS_TYPE":0,"CLASSIFICATION_TYPE":"U","NORAD_CAT_ID":54647,"ELEMENT_SET_NO":999,"REV_AT_EPOCH":13169,"BSTAR":-0.00050763,"MEAN_MOTION_DOT":-1.97e-6,"MEAN_MOTION_DDOT":0},{"OBJECT_NAME":"ONEWEB-0580","OBJECT_ID":"2022-166G","EPOCH":"2025-08-16T06:12:05.407488","MEAN_MOTION":13.21826651,"ECCENTRICITY":0.0002379,"INCLINATION":87.9256,"RA_OF_ASC_NODE":304.8302,"ARG_OF_PERICENTER":103.4644,"MEAN_ANOMALY":256.6755,"EPHEMERIS_TYPE":0,"CLASSIFICATION_TYPE":"U","NORAD_CAT_ID":54648,"ELEMENT_SET_NO":999,"REV_AT_EPOCH":13172,"BSTAR":7.8269e-6,"MEAN_MOTION_DOT":1.6e-7,"MEAN_MOTION_DDOT":0},{"OBJECT_NAME":"ONEWEB-0582","OBJECT_ID":"2022-166H","EPOCH":"2025-08-16T05:24:22.962528","MEAN_MOTION":13.21827178,"ECCENTRICITY":0.0002509,"INCLINATION":87.9249,"RA_OF_ASC_NODE":304.8331,"ARG_OF_PERICENTER":103.9231,"MEAN_ANOMALY":256.2182,"EPHEMERIS_TYPE":0,"CLASSIFICATION_TYPE":"U","NORAD_CAT_ID":54649,"ELEMENT_SET_NO":999,"REV_AT_EPOCH":13170,"BSTAR":0.0001405,"MEAN_MOTION_DOT":7.1e-7,"MEAN_MOTION_DDOT":0},{"OBJECT_NAME":"ONEWEB-0583","OBJECT_ID":"2022-166J","EPOCH":"2025-08-16T05:40:18.481728","MEAN_MOTION":13.21827286,"ECCENTRICITY":0.0002181,"INCLINATION":87.9255,"RA_OF_ASC_NODE":304.8535,"ARG_OF_PERICENTER":97.0594,"MEAN_ANOMALY":263.0788,"EPHEMERIS_TYPE":0,"CLASSIFICATION_TYPE":"U","NORAD_CAT_ID":54650,"ELEMENT_SET_NO":999,"REV_AT_EPOCH":13172,"BSTAR":0.00028547,"MEAN_MOTION_DOT":1.31e-6,"MEAN_MOTION_DDOT":0},{"OBJECT_NAME":"ONEWEB-0584","OBJECT_ID":"2022-166K","EPOCH":"2025-08-15T11:59:46.492224","MEAN_MOTION":13.21826996,"ECCENTRICITY":0.0002348,"INCLINATION":87.9258,"RA_OF_ASC_NODE":304.9844,"ARG_OF_PERICENTER":105.4707,"MEAN_ANOMALY":254.6686,"EPHEMERIS_TYPE":0,"CLASSIFICATION_TYPE":"U","NORAD_CAT_ID":54651,"ELEMENT_SET_NO":999,"REV_AT_EPOCH":13160,"BSTAR":5.9814e-5,"MEAN_MOTION_DOT":3.8e-7,"MEAN_MOTION_DDOT":0},{"OBJECT_NAME":"ONEWEB-0585","OBJECT_ID":"2022-166L","EPOCH":"2025-08-16T06:46:08.888448","MEAN_MOTION":13.21825539,"ECCENTRICITY":0.0001878,"INCLINATION":87.9258,"RA_OF_ASC_NODE":304.815,"ARG_OF_PERICENTER":97.4908,"MEAN_ANOMALY":262.6439,"EPHEMERIS_TYPE":0,"CLASSIFICATION_TYPE":"U","NORAD_CAT_ID":54652,"ELEMENT_SET_NO":999,"REV_AT_EPOCH":13171,"BSTAR":-0.00018608,"MEAN_MOTION_DOT":-6.4e-7,"MEAN_MOTION_DDOT":0},{"OBJECT_NAME":"ONEWEB-0586","OBJECT_ID":"2022-166M","EPOCH":"2025-08-16T07:04:19.150176","MEAN_MOTION":13.21826434,"ECCENTRICITY":0.0002195,"INCLINATION":87.9259,"RA_OF_ASC_NODE":304.8365,"ARG_OF_PERICENTER":98.8204,"MEAN_ANOMALY":261.3179,"EPHEMERIS_TYPE":0,"CLASSIFICATION_TYPE":"U","NORAD_CAT_ID":54653,"ELEMENT_SET_NO":999,"REV_AT_EPOCH":13171,"BSTAR":-8.0523e-5,"MEAN_MOTION_DOT":-2.0e-7,"MEAN_MOTION_DDOT":0},{"OBJECT_NAME":"ONEWEB-0587","OBJECT_ID":"2022-166N","EPOCH":"2025-08-16T05:28:53.045472","MEAN_MOTION":13.21829337,"ECCENTRICITY":0.0001808,"INCLINATION":87.9258,"RA_OF_ASC_NODE":304.7976,"ARG_OF_PERICENTER":97.46,"MEAN_ANOMALY":262.6739,"EPHEMERIS_TYPE":0,"CLASSIFICATION_TYPE":"U","NORAD_CAT_ID":54654,"ELEMENT_SET_NO":999,"REV_AT_EPOCH":13185,"BSTAR":0.00030496,"MEAN_MOTION_DOT":1.39e-6,"MEAN_MOTION_DDOT":0},{"OBJECT_NAME":"ONEWEB-0589","OBJECT_ID":"2022-166P","EPOCH":"2025-08-16T06:59:46.204800","MEAN_MOTION":13.21827068,"ECCENTRICITY":0.0002801,"INCLINATION":87.9256,"RA_OF_ASC_NODE":304.8291,"ARG_OF_PERICENTER":108.9257,"MEAN_ANOMALY":251.2181,"EPHEMERIS_TYPE":0,"CLASSIFICATION_TYPE":"U","NORAD_CAT_ID":54655,"ELEMENT_SET_NO":999,"REV_AT_EPOCH":13173,"BSTAR":-0.00013573,"MEAN_MOTION_DOT":-4.3e-7,"MEAN_MOTION_DDOT":0},{"OBJECT_NAME":"ONEWEB-0590","OBJECT_ID":"2022-166Q","EPOCH":"2025-08-15T22:28:35.771232","MEAN_MOTION":13.21823393,"ECCENTRICITY":0.0001862,"INCLINATION":87.9253,"RA_OF_ASC_NODE":304.8771,"ARG_OF_PERICENTER":111.584,"MEAN_ANOMALY":248.5493,"EPHEMERIS_TYPE":0,"CLASSIFICATION_TYPE":"U","NORAD_CAT_ID":54656,"ELEMENT_SET_NO":999,"REV_AT_EPOCH":13120,"BSTAR":4.9009e-6,"MEAN_MOTION_DOT":1.5e-7,"MEAN_MOTION_DDOT":0},{"OBJECT_NAME":"ONEWEB-0591","OBJECT_ID":"2022-166R","EPOCH":"2025-08-15T15:30:58.276512","MEAN_MOTION":13.21826605,"ECCENTRICITY":0.000213,"INCLINATION":87.9257,"RA_OF_ASC_NODE":304.9582,"ARG_OF_PERICENTER":101.4949,"MEAN_ANOMALY":258.6424,"EPHEMERIS_TYPE":0,"CLASSIFICATION_TYPE":"U","NORAD_CAT_ID":54657,"ELEMENT_SET_NO":999,"REV_AT_EPOCH":13119,"BSTAR":-2.0997e-5,"MEAN_MOTION_DOT":4.0e-8,"MEAN_MOTION_DDOT":0},{"OBJECT_NAME":"ONEWEB-0592","OBJECT_ID":"2022-166S","EPOCH":"2025-08-16T06:07:32.323008","MEAN_MOTION":13.21827176,"ECCENTRICITY":0.000213,"INCLINATION":87.9265,"RA_OF_ASC_NODE":304.7901,"ARG_OF_PERICENTER":102.838,"MEAN_ANOMALY":257.2992,"EPHEMERIS_TYPE":0,"CLASSIFICATION_TYPE":"U","NORAD_CAT_ID":54658,"ELEMENT_SET_NO":999,"REV_AT_EPOCH":13162,"BSTAR":-6.2172e-6,"MEAN_MOTION_DOT":1.0e-7,"MEAN_MOTION_DDOT":0}]
