ONEWEB-0527             
1 54642U 22166A   25227.50929367 -.00000021  00000+0 -82353-4 0  9996
2 54642  87.9259 304.9943 0001917  97.6350 262.5002 13.21827909131603
ONEWEB-0528             
1 54643U 22166B   25228.27257230 -.00000076  00000+0 -21480-3 0  9998
2 54643  87.9262 304.8440 0001941  95.0514 265.0841 13.21828023131719
ONEWEB-0539             
1 54644U 22166C   25227.93036519  .00000062  00000+0  11755-3 0  9993
2 54644  87.9251 304.8830 0002229  97.8105 262.3282 13.21824569131212
ONEWEB-0540             
1 54645U 22166D   25227.48263938  .00000022  00000+0  22911-4 0  9994
2 54645  87.9258 305.0069 0002208  97.6342 262.5043 13.21826798131612
ONEWEB-0542             
1 54646U 22166E   25228.24262006  .00000092  00000+0  19165-3 0  9998
2 54646  87.9249 304.8184 0002381 101.7001 258.4400 13.21827405131717
ONEWEB-0545             
1 54647U 22166F   25228.28519116 -.00000197  00000+0 -50763-3 0  9997
2 54647  87.9259 304.8270 0002575  96.5085 263.6342 13.21827354131696
ONEWEB-0580             
1 54648U 22166G   25228.25839592  .00000016  00000+0  78269-5 0  9999
2 54648  87.9256 304.8302 0002379 103.4644 256.6755 13.21826651131724
ONEWEB-0582             
1 54649U 22166H   25228.22526577  .00000071  00000+0  14050-3 0  9990
2 54649  87.9249 304.8331 0002509 103.9231 256.2182 13.21827178131704
ONEWEB-0583             
1 54650U 22166J   25228.23632502  .00000131  00000+0  28547-3 0  9992
2 54650  87.9255 304.8535 0002181  97.0594 263.0788 13.21827286131720
ONEWEB-0584             
1 54651U 22166K   25227.49984366  .00000038  00000+0  59814-4 0  9996
2 54651  87.9258 304.9844 0002348 105.4707 254.6686 13.21826996131600
ONEWEB-0585             
1 54652U 22166L   25228.28204732 -.00000064  00000+0 -18608-3 0  9993
2 54652  87.9258 304.8150 0001878  97.4908 262.6439 13.21825539131719
ONEWEB-0586             
1 54653U 22166M   25228.29466609 -.00000020  00000+0 -80523-4 0  9996
2 54653  87.9259 304.8365 0002195  98.8204 261.3179 13.21826434131718
ONEWEB-0587             
1 54654U 22166N   25228.22839173  .00000139  00000+0  30496-3 0  9992
2 54654  87.9258 304.7976 0001808  97.4600 262.6739 13.21829337131856
ONEWEB-0589             
1 54655U 22166P   25228.29150700 -.00000043  00000+0 -13573-3 0  9995
2 54655  87.9256 304.8291 0002801 108.9257 251.2181 13.21827068131737
ONEWEB-0590             
1 54656U 22166Q   25227.93652513  .00000015  00000+0  49009-5 0  9997
2 54656  87.9253 304.8771 0001862 111.5840 248.5493 13.21823393131206
ONEWEB-0591             
1 54657U 22166R   25227.64650783  .00000004  00000+0 -20997-4 0  9996
2 54657  87.9257 304.9582 0002130 101.4949 258.6424 13.21826605131192
ONEWEB-0592             
1 54658U 22166S   25228.25523522  .00000010  00000+0 -62172-5 0  9994
2 54658  87.9265 304.7901 0002130 102.8380 257.2992 13.21827176131626
